{
    "links": {
        "self": "http://www.neowsapp.com/rest/v1/neo/3723887?api_key=iIulBulltgU6a56xZRHN4H3l9WmuAYTsLGpBGhQ2"
    },
    "id": "3723887",
    "neo_reference_id": "3723887",
    "name": "(2015 NT2)",
    "designation": "2015 NT2",
    "nasa_jpl_url": "http://ssd.jpl.nasa.gov/sbdb.cgi?sstr=3723887",
    "absolute_magnitude_h": 23.9,
    "estimated_diameter": {
        "kilometers": {
            "estimated_diameter_min": 0.04411182,
            "estimated_diameter_max": 0.0986370281
        },
        "meters": {
            "estimated_diameter_min": 44.1118199997,
            "estimated_diameter_max": 98.6370281305
        },
        "miles": {
            "estimated_diameter_min": 0.0274098057,
            "estimated_diameter_max": 0.0612901888
        },
        "feet": {
            "estimated_diameter_min": 144.7238235278,
            "estimated_diameter_max": 323.6123073718
        }
    },
    "is_potentially_hazardous_asteroid": false,
    "close_approach_data": [
        {
            "close_approach_date": "1988-08-18",
            "close_approach_date_full": "1988-Aug-18 19:03",
            "epoch_date_close_approach": 587934180000,
            "relative_velocity": {
                "kilometers_per_second": "14.2480836201",
                "kilometers_per_hour": "51293.1010324187",
                "miles_per_hour": "31871.5382498382"
            },
            "miss_distance": {
                "astronomical": "0.4320028546",
                "lunar": "168.0491104394",
                "kilometers": "64626706.882079702",
                "miles": "40157173.5436438076"
            },
            "orbiting_body": "Earth"
        },
        {
            "close_approach_date": "2005-08-27",
            "close_approach_date_full": "2005-Aug-27 02:02",
            "epoch_date_close_approach": 1125108120000,
            "relative_velocity": {
                "kilometers_per_second": "9.5972208899",
                "kilometers_per_hour": "34549.9952036901",
                "miles_per_hour": "21468.0234086484"
            },
            "miss_distance": {
                "astronomical": "0.068476242",
                "lunar": "26.637258138",
                "kilometers": "10243899.94880454",
                "miles": "6365264.266961052"
            },
            "orbiting_body": "Mars"
        },
        {
            "close_approach_date": "2015-07-31",
            "close_approach_date_full": "2015-Jul-31 23:42",
            "epoch_date_close_approach": 1438386120000,
            "relative_velocity": {
                "kilometers_per_second": "6.5100114178",
                "kilometers_per_hour": "23436.0411040458",
                "miles_per_hour": "14562.2445404555"
            },
            "miss_distance": {
                "astronomical": "0.1456590635",
                "lunar": "56.6613757015",
                "kilometers": "21790285.645794745",
                "miles": "13539855.648847681"
            },
            "orbiting_body": "Earth"
        }
    ],
    "orbital_data": {
        "orbit_id": "7",
        "orbit_determination_date": "2017-04-06 08:32:51",
        "first_observation_date": "2015-07-06",
        "last_observation_date": "2015-08-22",
        "data_arc_in_days": 47,
        "observations_used": 18,
        "orbit_uncertainty": "6",
        "minimum_orbit_intersection": ".120583",
        "jupiter_tisserand_invariant": "3.454",
        "epoch_osculation": "2459000.5",
        "eccentricity": ".4946216260156919",
        "semi_major_axis": "2.246331829363017",
        "inclination": "5.199647472306506",
        "ascending_node_longitude": "129.058364729256",
        "orbital_period": "1229.728655445613",
        "perihelion_distance": "1.135247527352677",
        "perihelion_argument": "171.0905002937141",
        "aphelion_distance": "3.357416131373355",
        "perihelion_time": "2458460.655362389965",
        "mean_anomaly": "158.0381726318223",
        "mean_motion": ".2927475084896253",
        "equinox": "J2000",
        "orbit_class": {
            "orbit_class_type": "AMO",
            "orbit_class_description": "Near-Earth asteroid orbits similar to that of 1221 Amor",
            "orbit_class_range": "1.017 AU < q (perihelion) < 1.3 AU"
        }
    },
    "is_sentry_object": false
}